OBJECT_NAME,OBJECT_ID,EPOCH,MEAN_MOTION,ECCENTRICITY,INCLINATION,RA_OF_ASC_NODE,ARG_OF_PERICENTER,MEAN_ANOMALY,EPHEMERIS_TYPE,CLASSIFICATION_TYPE,NORAD_CAT_ID,ELEMENT_SET_NO,REV_AT_EPOCH,BSTAR,MEAN_MOTION_DOT,MEAN_MOTION_DDOT
SKYSAT-C4,2016-058B,2026-07-12T14:11:16.089216,15.49378795,.0003375,96.9166,214.3113,121.6663,238.4919,0,U,41771,999,54940,.21392E-3,.11647E-3,0
SKYSAT-C5,2016-058C,2026-07-12T16:00:08.750880,15.33697335,.0002262,97.0459,233.1668,167.5326,192.5974,0,U,41772,999,54765,.14077E-3,.4512E-4,0
SKYSAT-C2,2016-058D,2026-07-12T13:29:11.076000,15.42640053,.0001849,97.0160,214.7089,5.3443,354.7825,0,U,41773,999,54896,.18376E-3,.792E-4,0
SKYSAT-C3,2016-058E,2026-07-12T15:47:28.423104,15.53626037,.0002414,96.8992,223.5415,136.6705,223.4740,0,U,41774,999,55006,.24693E-3,.15667E-3,0
ALSAT-1B,2016-059C,2026-07-13T03:13:03.247104,14.72294673,.0010173,97.7755,201.7779,135.6755,224.5270,0,U,41785,999,52439,.87264E-4,.505E-5,0
PATHFINDER 1,2016-059E,2026-07-12T21:46:16.742208,14.67691626,.0029712,97.8175,192.0236,122.6754,237.7323,0,U,41787,999,52348,.61291E-4,.304E-5,0
SCATSAT 1,2016-059H,2026-07-12T17:01:39.059040,14.79583421,.0055053,98.1179,257.7377,164.4981,195.7932,0,U,41790,999,10536,.95986E-4,.68E-5,0
GOKTURK 1A,2016-073A,2026-07-13T04:05:47.583168,14.62793293,.0001432,98.1224,88.4347,78.7532,281.3831,0,U,41875,999,51262,.9966E-4,.462E-5,0
RESOURCESAT-2A,2016-074A,2026-07-13T04:23:02.607648,14.21608460,.0002491,98.7526,267.4732,33.2498,326.8836,0,U,41877,999,49799,.52607E-4,.71E-6,0
CARTOSAT-2D,2017-008A,2026-07-13T04:11:30.082272,15.19277506,.0005832,97.4099,252.9928,145.5429,214.6184,0,U,41948,999,52152,.20037E-3,.416E-4,0
SENTINEL-2B,2017-013A,2026-07-13T03:38:14.810784,14.30814217,.0001206,98.5691,268.5584,90.8179,269.3142,0,U,42063,999,48835,-.34483E-4,-.134E-5,0
CARTOSAT-2E,2017-036C,2026-07-13T04:37:01.835040,15.19244544,.000307,97.4265,253.5643,195.6724,164.4416,0,U,42767,999,50209,.11238E-3,.23E-4,0
FORMOSAT-5,2017-049A,2026-07-13T04:33:27.559584,14.50907512,.0011467,98.2247,268.9212,9.9442,350.1978,0,U,42920,999,47044,.22248E-4,.44E-6,0
SENTINEL-5P,2017-064A,2026-07-12T20:36:35.745120,14.19523050,.0001097,98.7929,135.8082,92.5658,267.5644,0,U,42969,999,45320,.22037E-4,.2E-7,0
SKYSAT-C11,2017-068A,2026-07-12T22:21:19.838304,15.59239978,.0001071,97.4368,343.9123,162.0962,198.0332,0,U,42987,999,48725,.27485E-3,.21483E-3,0
SKYSAT-C10,2017-068B,2026-07-12T21:55:58.393056,15.35089047,.0001412,97.4529,331.0233,109.5205,250.6191,0,U,42988,999,48630,.22092E-3,.744E-4,0
SKYSAT-C9,2017-068C,2026-07-13T04:45:24.039360,15.42182725,.0008786,97.4447,332.4976,51.3720,308.8312,0,U,42989,999,48676,.188E-3,.7983E-4,0
SKYSAT-C8,2017-068D,2026-07-12T23:25:13.596384,15.37465076,.0001236,97.4545,330.9850,101.6418,258.4965,0,U,42990,999,48627,.19718E-3,.716E-4,0
SKYSAT-C7,2017-068E,2026-07-12T21:43:27.525216,15.37415204,.0005901,97.4558,331.9045,29.1187,331.0385,0,U,42991,999,48632,.19129E-3,.6935E-4,0
SKYSAT-C6,2017-068F,2026-07-12T23:24:33.638112,15.34147028,.0005139,97.4595,331.8393,94.7511,265.4318,0,U,42992,999,48627,.18567E-3,.6056E-4,0
CARTOSAT-2F,2018-004A,2026-07-13T03:49:05.411424,15.19262867,.0002601,97.4786,253.5378,140.7770,219.3653,0,U,43111,999,47127,.1518E-3,.3132E-4,0
GAOFEN-1 02,2018-031A,2026-07-13T04:29:18.163392,14.76468436,.0001596,98.0522,256.6394,298.8453,61.2596,0,U,43259,999,44653,-.13636E-4,-.146E-5,0
GAOFEN-1 03,2018-031B,2026-07-13T03:57:44.697888,14.76460996,.0002569,98.0505,256.4733,21.2579,338.8737,0,U,43260,999,44652,.58731E-4,.357E-5,0
GAOFEN-1 04,2018-031D,2026-07-13T05:00:21.764736,14.76470093,.0001369,98.0523,256.7107,58.1315,302.0028,0,U,43262,999,44652,.88384E-4,.564E-5,0
SENTINEL-3B,2018-039A,2026-07-12T18:53:25.467648,14.26735933,.0001083,98.6237,260.9506,119.4324,240.6964,0,U,43437,999,42777,.19507E-4,.4E-7,0
GAOFEN-5 01,2018-043A,2026-07-12T21:18:43.579296,14.60622425,.0002228,98.4588,166.0166,36.7715,323.3637,0,U,43461,999,43544,.38748E-4,.139E-5,0
GAOFEN-6,2018-048A,2026-07-13T03:55:04.596960,14.76381992,.0012149,98.0966,256.8602,87.5289,272.7311,0,U,43484,999,43722,.30565E-4,.16E-5,0
GAOFEN-11 01,2018-063A,2026-07-13T05:23:19.989024,15.56025942,.0002958,97.1288,261.0407,208.8035,151.3058,0,U,43585,999,44439,.11899E-3,.8183E-4,0
ICESAT-2,2018-070A,2026-07-13T05:10:40.024128,15.28329515,.0005576,92.0094,298.0125,70.0174,290.1675,0,U,43613,999,43643,.20626E-3,.5692E-4,0
HYSIS,2018-096A,2026-07-13T04:43:38.068896,14.78666121,.000183,97.9836,260.7391,85.1460,274.9959,0,U,43719,999,41126,.23193E-4,.118E-5,0
KAZSTSAT,2018-099AB,2026-07-13T01:10:01.067808,14.99952853,.0007479,97.4318,224.8108,349.5383,10.5685,0,U,43783,999,41518,.61366E-4,.706E-5,0
