SKYSAT-C4               
1 41771U 16058B   26193.59115844  .00011647  00000+0  21392-3 0  9996
2 41771  96.9166 214.3113 0003375 121.6663 238.4919 15.49378795549403
SKYSAT-C5               
1 41772U 16058C   26193.66676795  .00004512  00000+0  14077-3 0  9997
2 41772  97.0459 233.1668 0002262 167.5326 192.5974 15.33697335547657
SKYSAT-C2               
1 41773U 16058D   26193.56193375  .00007920  00000+0  18376-3 0  9997
2 41773  97.0160 214.7089 0001849   5.3443 354.7825 15.42640053548965
SKYSAT-C3               
1 41774U 16058E   26193.65796786  .00015667  00000+0  24693-3 0  9999
2 41774  96.8992 223.5415 0002414 136.6705 223.4740 15.53626037550065
ALSAT-1B                
1 41785U 16059C   26194.13406536  .00000505  00000+0  87264-4 0  9996
2 41785  97.7755 201.7779 0010173 135.6755 224.5270 14.72294673524394
PATHFINDER 1            
1 41787U 16059E   26193.90713822  .00000304  00000+0  61291-4 0  9990
2 41787  97.8175 192.0236 0029712 122.6754 237.7323 14.67691626523484
SCATSAT 1               
1 41790U 16059H   26193.70947985  .00000680  00000+0  95986-4 0  9996
2 41790  98.1179 257.7377 0055053 164.4981 195.7932 14.79583421105362
GOKTURK 1A              
1 41875U 16073A   26194.17068962  .00000462  00000+0  99660-4 0  9998
2 41875  98.1224  88.4347 0001432  78.7532 281.3831 14.62793293512627
RESOURCESAT-2A          
1 41877U 16074A   26194.18266907  .00000071  00000+0  52607-4 0  9997
2 41877  98.7526 267.4732 0002491  33.2498 326.8836 14.21608460497998
CARTOSAT-2D             
1 41948U 17008A   26194.17465373  .00004160  00000+0  20037-3 0  9995
2 41948  97.4099 252.9928 0005832 145.5429 214.6184 15.19277506521525
SENTINEL-2B             
1 42063U 17013A   26194.15156031 -.00000134  00000+0 -34483-4 0  9996
2 42063  98.5691 268.5584 0001206  90.8179 269.3142 14.30814217488352
CARTOSAT-2E             
1 42767U 17036C   26194.19238235  .00002300  00000+0  11238-3 0  9990
2 42767  97.4265 253.5643 0003070 195.6724 164.4416 15.19244544502094
FORMOSAT-5              
1 42920U 17049A   26194.18990231  .00000044  00000+0  22248-4 0  9992
2 42920  98.2247 268.9212 0011467   9.9442 350.1978 14.50907512470444
SENTINEL-5P             
1 42969U 17064A   26193.85874705  .00000002  00000+0  22037-4 0  9992
2 42969  98.7929 135.8082 0001097  92.5658 267.5644 14.19523050453203
SKYSAT-C11              
1 42987U 17068A   26193.93147961  .00021483  00000+0  27485-3 0  9999
2 42987  97.4368 343.9123 0001071 162.0962 198.0332 15.59239978487259
SKYSAT-C10              
1 42988U 17068B   26193.91387029  .00007440  00000+0  22092-3 0  9995
2 42988  97.4529 331.0233 0001412 109.5205 250.6191 15.35089047486301
SKYSAT-C9               
1 42989U 17068C   26194.19819490  .00007983  00000+0  18800-3 0  9993
2 42989  97.4447 332.4976 0008786  51.3720 308.8312 15.42182725486763
SKYSAT-C8               
1 42990U 17068D   26193.97585181  .00007160  00000+0  19718-3 0  9993
2 42990  97.4545 330.9850 0001236 101.6418 258.4965 15.37465076486271
SKYSAT-C7               
1 42991U 17068E   26193.90517969  .00006935  00000+0  19129-3 0  9991
2 42991  97.4558 331.9045 0005901  29.1187 331.0385 15.37415204486321
SKYSAT-C6               
1 42992U 17068F   26193.97538933  .00006056  00000+0  18567-3 0  9992
2 42992  97.4595 331.8393 0005139  94.7511 265.4318 15.34147028486273
CARTOSAT-2F             
1 43111U 18004A   26194.15909041  .00003132  00000+0  15180-3 0  9990
2 43111  97.4786 253.5378 0002601 140.7770 219.3653 15.19262867471278
GAOFEN-1 02             
1 43259U 18031A   26194.18701578 -.00000146  00000+0 -13636-4 0  9990
2 43259  98.0522 256.6394 0001596 298.8453  61.2596 14.76468436446536
GAOFEN-1 03             
1 43260U 18031B   26194.16510067  .00000357  00000+0  58731-4 0  9998
2 43260  98.0505 256.4733 0002569  21.2579 338.8737 14.76460996446524
GAOFEN-1 04             
1 43262U 18031D   26194.20858524  .00000564  00000+0  88384-4 0  9995
2 43262  98.0523 256.7107 0001369  58.1315 302.0028 14.76470093446523
SENTINEL-3B             
1 43437U 18039A   26193.78710032  .00000004  00000+0  19507-4 0  9990
2 43437  98.6237 260.9506 0001083 119.4324 240.6964 14.26735933427773
GAOFEN-5 01             
1 43461U 18043A   26193.88800439  .00000139  00000+0  38748-4 0  9991
2 43461  98.4588 166.0166 0002228  36.7715 323.3637 14.60622425435440
GAOFEN-6                
1 43484U 18048A   26194.16324765  .00000160  00000+0  30565-4 0  9999
2 43484  98.0966 256.8602 0012149  87.5289 272.7311 14.76381992437229
GAOFEN-11 01            
1 43585U 18063A   26194.22453691  .00008183  00000+0  11899-3 0  9997
2 43585  97.1288 261.0407 0002958 208.8035 151.3058 15.56025942444398
ICESAT-2                
1 43613U 18070A   26194.21574102  .00005692  00000+0  20626-3 0  9997
2 43613  92.0094 298.0125 0005576  70.0174 290.1675 15.28329515436433
HYSIS                   
1 43719U 18096A   26194.19696839  .00000118  00000+0  23193-4 0  9992
2 43719  97.9836 260.7391 0001830  85.1460 274.9959 14.78666121411263
KAZSTSAT                
1 43783U 18099AB  26194.04862347  .00000706  00000+0  61366-4 0  9996
2 43783  97.4318 224.8108 0007479 349.5383  10.5685 14.99952853415185
